#aV2010 10 20  0  0   .00000000      96 DD+AD WGS84 FIT  NGA
## 1606 259200.00000000   900.00000000 55489  .0000000000000
+   32     1  2  3  4  5  6  7  8  9 10 11 12 13 14 15 16 17
+         18 19 20 21 22 23 24 25 26 27 28 29 30 31 32  0  0
+          0  0  0  0  0  0  0  0  0  0  0  0  0  0  0  0  0
+          0  0  0  0  0  0  0  0  0  0  0  0  0  0  0  0  0
+          0  0  0  0  0  0  0  0  0  0  0  0  0  0  0  0  0
++         0  0  0  0  0  0  0  0  0  0  0  0  0  0  0  0  0
++         0  0  0  0  0  0  0  0  0  0  0  0  0  0  0  0  0
++         0  0  0  0  0  0  0  0  0  0  0  0  0  0  0  0  0
++         0  0  0  0  0  0  0  0  0  0  0  0  0  0  0  0  0
++         0  0  0  0  0  0  0  0  0  0  0  0  0  0  0  0  0
%c cc cc ccc ccc cccc cccc cccc cccc ccccc ccccc ccccc ccccc
%c cc cc ccc ccc cccc cccc cccc cccc ccccc ccccc ccccc ccccc
%f  0.0000000  0.000000000  0.00000000000  0.000000000000000
%f  0.0000000  0.000000000  0.00000000000  0.000000000000000
%i    0    0    0    0      0      0      0      0         0
%i    0    0    0    0      0      0      0      0         0
/*      NGA, ST. LOUIS,MO.                                  
/*   EPHEMERIS COMPUTED FROM  3 DAYS OF DATA                
/* CCCCCCCCCCCCCCCCCCCCCCCCCCCCCCCCCCCCCCCCCCCCCCCCCCCCCCCCC
/* CCCCCCCCCCCCCCCCCCCCCCCCCCCCCCCCCCCCCCCCCCCCCCCCCCCCCCCCC
*  2010 10 20  0  0   .00000000                                                 
P  1 -14604.065114   5587.576247  21367.160703   -174.023958                    
V  1 -17299.312050 -21221.306085  -6118.627549      -.037402                    
P  2  18585.246659 -13326.456833  13099.860578    296.662449                    
V  2  17147.207123   -165.495363 -24962.891554       .026069                    
P  3  -9662.164589  23849.183720   5434.127683    623.902098                    
V  3  -2299.940551  -8222.309187  30161.150152       .050813                    
P  4  25782.422779  -6529.338678   2733.229730    198.186288                    
V  4   4164.886142   2503.549027 -30782.721689       .095047                    
P  5   4565.035149 -16635.497732  20158.713133    -54.116507                    
V  5  17419.235129  18879.810388  11719.920359      -.059635                    
P  6 -13827.382606  20420.106888   9788.552342    449.760426                    
V  6    417.727367 -12743.239617  27809.940043      -.136179                    
P  7  20676.055218   7011.545012  15262.630490     -1.281721                    
V  7 -18731.227033   4833.261061  22955.745068       .002245                    
P  8  26407.061010    587.088013   4876.398794      6.883801                    
V  8  -5922.700072   1823.890124  31346.800364       .000892                    
P  9  -1225.716827 -15015.527497 -22418.234428     37.395173                    
V  9  26582.623047  -5231.615466   2116.721840       .022053                    
P 10  16240.475796  -3262.617479  20639.166886    -55.628090                    
V 10  16057.923066  21222.985238  -8841.835375      -.010504                    
P 11   8102.570323  14864.768522 -20769.313367    -97.736363                    
V 11 -23797.285164  10605.334411  -1351.429531      -.027747                    
P 12  -9756.201557 -22668.990080  -9980.651777    -61.881250                    
V 12   9628.136406   8477.568363 -28421.034289       .035680                    
P 13   9025.668008  13351.006276  20969.716246    294.436140                    
V 13 -11622.282868  24226.364245 -10403.161193      -.010783                    
P 14 -16729.528472   6534.666856 -19358.598192     99.559265                    
V 14   8713.933208 -23359.563538 -15427.748104       .034956                    
P 15   3474.172741 -25312.577499  -6981.196238   -193.782450                    
V 15   5792.470422  -7451.843698  29949.702377       .048238                    
P 16  -9772.142514  11580.453290  21821.107510   -118.780469                    
V 16 -17430.946823 -21433.907604   3843.129703      -.033331                    
P 17  16609.957611  -3481.542650 -20267.159853    174.733647                    
V 17  -8485.641526  24642.738753 -11344.194845       .011887                    
P 18 -19946.696292 -16096.430531  -7372.139068     99.815856                    
V 18  -3627.856576  -9518.546145  29044.989751       .021834                    
P 19  -6052.164374  24755.455120  -6847.936995    -75.725252                    
V 19  -6418.540122   6726.456094  30267.853556      -.033194                    
P 20  11345.941612  22408.356838  -8871.059024     50.134329                    
V 20  -9810.079054  -6108.938450 -28348.488775      -.002942                    
P 21 -22621.420722  -6306.639586  13340.516798    -96.345037                    
V 21  15589.422896  -4965.216414  24140.428612      -.027216                    
P 22 -19916.167523  -5143.343996 -16681.828836    160.550139                    
V 22 -11664.504849 -18273.750772  19265.676144      -.007312                    
P 23   2912.308751  21593.700235  14944.963181    348.047273                    
V 23  -8730.789963  17134.024287 -23375.909514      -.019704                    
P 24  -9892.420283  15145.454599 -19311.190632    331.527853                    
V 24 -24764.480290   1467.149266  14047.408542       .032241                    
P 25 -17840.613468 -19646.054771    917.997434    -46.627879                    
V 25   1356.752666  -2748.835839 -31738.723298      -.021223                    
P 26  11748.694958 -23441.251423   1790.746545    -33.183565                    
V 26    880.695341   3668.304491  32555.257862      -.076576                    
P 27   5832.509531 -15246.028510 -20224.274166    199.754677                    
V 27  26779.291585  -5065.445332  11384.739375       .035465                    
P 28  19880.682618   9162.150689 -14752.451496      1.028827                    
V 28  10535.619425  16461.149921  23366.610706       .016156                    
P 29  -9133.824099 -14897.290088  20091.757910    157.434895                    
V 29  10465.359241 -23089.598222 -12372.361507       .028741                    
P 30 -20232.165936 -16100.254812   5744.944263    288.830274                    
V 30  -3183.128051  -7706.543228 -30535.427681       .034023                    
P 31 -24558.088748   8434.939009   6233.655034       .722380                    
V 31  -7816.049337   -684.744444 -30723.998855       .034439                    
P 32   4424.702072  22573.945115 -13268.166588   -112.332943                    
V 32 -11670.414096 -12884.810790 -24830.859755      -.087667                    
EOF
